$$SOE
2460721.500000000, A.D. 2025-Feb-15 00:00:00.0000, -7.016268516986908E+07, 4.812927416626884E+08, -1.101109637720867E+08,
2460728.500000000, A.D. 2025-Feb-22 00:00:00.0000, -7.623277942278561E+07, 4.854529828559113E+08, -1.129353851064086E+08,
2460735.500000000, A.D. 2025-Mar-01 00:00:00.0000, -8.227380800379173E+07, 4.894295900883883E+08, -1.157169097340776E+08,
2460742.500000000, A.D. 2025-Mar-08 00:00:00.0000, -8.828445666053122E+07, 4.932268871811508E+08, -1.184558559577484E+08,
2460749.500000000, A.D. 2025-Mar-15 00:00:00.0000, -9.426349819160531E+07, 4.968489848575997E+08, -1.211525338100268E+08,
2460756.500000000, A.D. 2025-Mar-22 00:00:00.0000, -1.002097861635218E+08, 5.002997952987712E+08, -1.238072444215013E+08,
2460763.500000000, A.D. 2025-Mar-29 00:00:00.0000, -1.061222481536619E+08, 5.035830432631317E+08, -1.264202797936653E+08,
2460770.500000000, A.D. 2025-Apr-05 00:00:00.0000, -1.119998780854018E+08, 5.067022770269129E+08, -1.289919227340494E+08,
2460777.500000000, A.D. 2025-Apr-12 00:00:00.0000, -1.178417294863010E+08, 5.096608793532723E+08, -1.315224467550701E+08,
2460784.500000000, A.D. 2025-Apr-19 00:00:00.0000, -1.236469097744013E+08, 5.124620777006366E+08, -1.340121159798275E+08,
2460791.500000000, A.D. 2025-Apr-26 00:00:00.0000, -1.294145752301440E+08, 5.151089535489954E+08, -1.364611850866888E+08,
2460798.500000000, A.D. 2025-May-03 00:00:00.0000, -1.351439264786243E+08, 5.176044509365314E+08, -1.388698992935361E+08,
2460805.500000000, A.D. 2025-May-10 00:00:00.0000, -1.408342043998515E+08, 5.199513842807605E+08, -1.412384943769317E+08,
2460812.500000000, A.D. 2025-May-17 00:00:00.0000, -1.464846863832459E+08, 5.221524455017533E+08, -1.435671967273216E+08,
2460819.500000000, A.D. 2025-May-24 00:00:00.0000, -1.520946827112492E+08, 5.242102104454558E+08, -1.458562234559368E+08,
2460826.500000000, A.D. 2025-May-31 00:00:00.0000, -1.576635326181833E+08, 5.261271449652830E+08, -1.481057825623266E+08,
2460833.500000000, A.D. 2025-Jun-07 00:00:00.0000, -1.631906003936085E+08, 5.279056119094909E+08, -1.503160730241299E+08,
2460840.500000000, A.D. 2025-Jun-14 00:00:00.0000, -1.686752738661664E+08, 5.295478783860573E+08, -1.524872846440587E+08,
2460847.500000000, A.D. 2025-Jun-21 00:00:00.0000, -1.741169640256501E+08, 5.310561200673843E+08, -1.546195980301246E+08,
2460854.500000000, A.D. 2025-Jun-28 00:00:00.0000, -1.795151026337228E+08, 5.324324243300348E+08, -1.567131848494635E+08,
2460861.500000000, A.D. 2025-Jul-05 00:00:00.0000, -1.848691393209105E+08, 5.336787944148488E+08, -1.587682080391431E+08,
2460868.500000000, A.D. 2025-Jul-12 00:00:00.0000, -1.901785393431106E+08, 5.347971538279340E+08, -1.607848219292086E+08,
2460875.500000000, A.D. 2025-Jul-19 00:00:00.0000, -1.954427817923253E+08, 5.357893504304249E+08, -1.627631723409530E+08,
2460882.500000000, A.D. 2025-Jul-26 00:00:00.0000, -2.006613580378522E+08, 5.366571601813477E+08, -1.647033966831259E+08,
2460889.500000000, A.D. 2025-Aug-02 00:00:00.0000, -2.058337703202106E+08, 5.374022905743884E+08, -1.666056240493532E+08,
2460896.500000000, A.D. 2025-Aug-09 00:00:00.0000, -2.109595304633271E+08, 5.380263837714974E+08, -1.684699753192897E+08,
2460903.500000000, A.D. 2025-Aug-16 00:00:00.0000, -2.160381586180654E+08, 5.385310193862087E+08, -1.702965632750030E+08,
2460910.500000000, A.D. 2025-Aug-23 00:00:00.0000, -2.210691817355309E+08, 5.389177169478984E+08, -1.720854927574155E+08,
2460917.500000000, A.D. 2025-Aug-30 00:00:00.0000, -2.260521314331729E+08, 5.391879387745867E+08, -1.738368608340892E+08,
2460924.500000000, A.D. 2025-Sep-06 00:00:00.0000, -2.309865426644170E+08, 5.393430942671953E+08, -1.755507567661923E+08,
2460931.500000000, A.D. 2025-Sep-13 00:00:00.0000, -2.358719548552204E+08, 5.393845431537219E+08, -1.772272618237389E+08,
2460938.500000000, A.D. 2025-Sep-20 00:00:00.0000, -2.407079122276900E+08, 5.393135960483015E+08, -1.788664493825502E+08,
2460945.500000000, A.D. 2025-Sep-27 00:00:00.0000, -2.454939622471516E+08, 5.391315154456633E+08, -1.804683851450279E+08,
2460952.500000000, A.D. 2025-Oct-04 00:00:00.0000, -2.502296542046124E+08, 5.388395176990318E+08, -1.820331272554440E+08,
2460959.500000000, A.D. 2025-Oct-11 00:00:00.0000, -2.549145383037730E+08, 5.384387750463961E+08, -1.835607263521880E+08,
2460966.500000000, A.D. 2025-Oct-18 00:00:00.0000, -2.595481649650468E+08, 5.379304174181285E+08, -1.850512256052189E+08,
2460973.500000000, A.D. 2025-Oct-25 00:00:00.0000, -2.641300842035687E+08, 5.373155340441484E+08, -1.865046607507174E+08,
2460980.500000000, A.D. 2025-Nov-01 00:00:00.0000, -2.686598450383894E+08, 5.365951748830370E+08, -1.879210601255270E+08,
2460987.500000000, A.D. 2025-Nov-08 00:00:00.0000, -2.731369948950206E+08, 5.357703518481339E+08, -1.893004447073527E+08,
2460994.500000000, A.D. 2025-Nov-15 00:00:00.0000, -2.775610788503222E+08, 5.348420397779567E+08, -1.906428281792187E+08,
2461001.500000000, A.D. 2025-Nov-22 00:00:00.0000, -2.819316383141694E+08, 5.338111773763899E+08, -1.919482170372239E+08,
2461008.500000000, A.D. 2025-Nov-29 00:00:00.0000, -2.862482092985684E+08, 5.326786692626331E+08, -1.932166106349495E+08,
2461015.500000000, A.D. 2025-Dec-06 00:00:00.0000, -2.905103225491664E+08, 5.314453889997896E+08, -1.944480009670145E+08,
2461022.500000000, A.D. 2025-Dec-13 00:00:00.0000, -2.947175051026846E+08, 5.301121797358958E+08, -1.956423725068577E+08,
2461029.500000000, A.D. 2025-Dec-20 00:00:00.0000, -2.988692797748359E+08, 5.286798534839389E+08, -1.967997023350990E+08,
2461036.500000000, A.D. 2025-Dec-27 00:00:00.0000, -3.029651636509150E+08, 5.271491916359605E+08, -1.979199602483029E+08,
2461043.500000000, A.D. 2026-Jan-03 00:00:00.0000, -3.070046670362618E+08, 5.255209460996985E+08, -1.990031087646994E+08,
2461050.500000000, A.D. 2026-Jan-10 00:00:00.0000, -3.109872927546738E+08, 5.237958403824598E+08, -2.000491030921537E+08,
2461057.500000000, A.D. 2026-Jan-17 00:00:00.0000, -3.149125355602313E+08, 5.219745705340248E+08, -2.010578910868220E+08,
2461064.500000000, A.D. 2026-Jan-24 00:00:00.0000, -3.187798815827817E+08, 5.200578059745076E+08, -2.020294132073972E+08,
2461071.500000000, A.D. 2026-Jan-31 00:00:00.0000, -3.225888077819311E+08, 5.180461902029126E+08, -2.029636024673235E+08,
2461078.500000000, A.D. 2026-Feb-07 00:00:00.0000, -3.263387813464243E+08, 5.159403413320493E+08, -2.038603843949270E+08,
2461085.500000000, A.D. 2026-Feb-14 00:00:00.0000, -3.300292587843184E+08, 5.137408524373706E+08, -2.047196770255794E+08,
2461092.500000000, A.D. 2026-Feb-21 00:00:00.0000, -3.336596843150037E+08, 5.114482922994667E+08, -2.055413909139872E+08,
2461099.500000000, A.D. 2026-Feb-28 00:00:00.0000, -3.372294886465940E+08, 5.090632076963113E+08, -2.063254289727432E+08,
2461106.500000000, A.D. 2026-Mar-07 00:00:00.0000, -3.407380901956102E+08, 5.065861252977819E+08, -2.070716861076218E+08,
2461113.500000000, A.D. 2026-Mar-14 00:00:00.0000, -3.441848959711794E+08, 5.040175508314467E+08, -2.077800490942665E+08,
2461120.500000000, A.D. 2026-Mar-21 00:00:00.0000, -3.475693003394243E+08, 5.013579684188354E+08, -2.084503966223870E+08,
2461127.500000000, A.D. 2026-Mar-28 00:00:00.0000, -3.508906836761335E+08, 4.986078411126196E+08, -2.090825992389661E+08,
2461134.500000000, A.D. 2026-Apr-04 00:00:00.0000, -3.541484115096685E+08, 4.957676116707819E+08, -2.096765192137238E+08,
2461141.500000000, A.D. 2026-Apr-11 00:00:00.0000, -3.573418338782508E+08, 4.928377032092176E+08, -2.102320103808210E+08,
2461148.500000000, A.D. 2026-Apr-18 00:00:00.0000, -3.604702847403135E+08, 4.898185197273429E+08, -2.107489179713421E+08,
2461155.500000000, A.D. 2026-Apr-25 00:00:00.0000, -3.635330813898560E+08, 4.867104465226436E+08, -2.112270784389161E+08,
2461162.500000000, A.D. 2026-May-02 00:00:00.0000, -3.665295238436279E+08, 4.835138504657124E+08, -2.116663192830016E+08,
2461169.500000000, A.D. 2026-May-09 00:00:00.0000, -3.694588940728465E+08, 4.802290800705881E+08, -2.120664588858580E+08,
2461176.500000000, A.D. 2026-May-16 00:00:00.0000, -3.723204546987590E+08, 4.768564654995989E+08, -2.124273063856378E+08,
2461183.500000000, A.D. 2026-May-23 00:00:00.0000, -3.751134470976738E+08, 4.733963195258112E+08, -2.127486615059147E+08,
2461190.500000000, A.D. 2026-May-30 00:00:00.0000, -3.778370909916142E+08, 4.698489397735727E+08, -2.130303141242975E+08,
2461197.500000000, A.D. 2026-Jun-06 00:00:00.0000, -3.804905858392710E+08, 4.662146089646699E+08, -2.132720438179868E+08,
2461204.500000000, A.D. 2026-Jun-13 00:00:00.0000, -3.830731103585532E+08, 4.624935933696764E+08, -2.134736197053834E+08,
2461211.500000000, A.D. 2026-Jun-20 00:00:00.0000, -3.855838206794816E+08, 4.586861423914399E+08, -2.136348002982351E+08,
2461218.500000000, A.D. 2026-Jun-27 00:00:00.0000, -3.880218488231769E+08, 4.547924889423339E+08, -2.137553332362291E+08,
2461225.500000000, A.D. 2026-Jul-04 00:00:00.0000, -3.903863015037301E+08, 4.508128498417975E+08, -2.138349549669284E+08,
2461232.500000000, A.D. 2026-Jul-11 00:00:00.0000, -3.926762589953946E+08, 4.467474261034307E+08, -2.138733904043993E+08,
2461239.500000000, A.D. 2026-Jul-18 00:00:00.0000, -3.948907739685729E+08, 4.425964031384456E+08, -2.138703525720617E+08,
2461246.500000000, A.D. 2026-Jul-25 00:00:00.0000, -3.970288702661425E+08, 4.383599508792518E+08, -2.138255422307925E+08,
2461253.500000000, A.D. 2026-Aug-01 00:00:00.0000, -3.990895415677578E+08, 4.340382237761316E+08, -2.137386474995125E+08,
2461260.500000000, A.D. 2026-Aug-08 00:00:00.0000, -4.010717497227015E+08, 4.296313606322419E+08, -2.136093434896303E+08,
2461267.500000000, A.D. 2026-Aug-15 00:00:00.0000, -4.029744223314546E+08, 4.251394847285034E+08, -2.134372919531921E+08,
2461274.500000000, A.D. 2026-Aug-22 00:00:00.0000, -4.047964503320596E+08, 4.205627054610127E+08, -2.132221407737072E+08,
2461281.500000000, A.D. 2026-Aug-29 00:00:00.0000, -4.065366878749871E+08, 4.159011201200429E+08, -2.129635232005160E+08,
$$EOE